CCSDS_OEM_VERS = 1.0
CREATION_DATE  = 2017-05-11T11:49:19
ORIGINATOR     = GMAT USER

META_START
OBJECT_NAME          = MOPSSat_alt_35785_km_RAAN_270_010
OBJECT_ID            = SatId
CENTER_NAME          = Earth
REF_FRAME            = EME2000
TIME_SYSTEM          = UTC
START_TIME           = 2017-01-01T00:00:00.000
USEABLE_START_TIME   = 2017-01-01T00:00:00.000
USEABLE_STOP_TIME    = 2017-01-02T00:00:00.000
STOP_TIME            = 2017-01-02T00:00:00.000
INTERPOLATION        = Lagrange
INTERPOLATION_DEGREE = 7 
META_STOP


                                                                                   

2017-01-01T00:36:40.000   6.734275921820164e+03  -4.162256505254775e+04   1.175369876317544e+02   3.034734594276570e+00   4.911571087544792e-01   5.296202821379554e-02
2017-01-01T00:36:50.000   6.764621474258389e+03  -4.161764241527888e+04   1.180665763833891e+02   3.034375736761796e+00   4.933703196089259e-01   5.295571937683344e-02
2017-01-01T00:37:00.000   6.794963430019466e+03  -4.161269764721775e+04   1.185961019051621e+02   3.034015265634253e+00   4.955832680648135e-01   5.294938235992468e-02
2017-01-01T00:37:10.000   6.825301773291886e+03  -4.160773075094249e+04   1.191255639209394e+02   3.033653181081806e+00   4.977959529689837e-01   5.294301716639584e-02
2017-01-01T00:37:20.000   6.855636487958055e+03  -4.160274172909081e+04   1.196549621492459e+02   3.033289483296667e+00   5.000083731459550e-01   5.293662379964985e-02
2017-01-01T00:37:30.000   6.885967557886541e+03  -4.159773058431541e+04   1.201842963083650e+02   3.032924172472137e+00   5.022205274192364e-01   5.293020226310878e-02
2017-01-01T00:37:40.000   6.916294966931872e+03  -4.159269731928277e+04   1.207135661163360e+02   3.032557248802526e+00   5.044324146113124e-01   5.292375256021230e-02
2017-01-01T00:37:50.000   6.946618698643435e+03  -4.158764193672447e+04   1.212427712858732e+02   3.032188712486887e+00   5.066440335224119e-01   5.291727469448326e-02
2017-01-01T00:38:00.000   6.976938736657775e+03  -4.158256443936916e+04   1.217719115312126e+02   3.031818563724062e+00   5.088553829591220e-01   5.291076866944095e-02
2017-01-01T00:38:10.000   7.007255064541087e+03  -4.157746482996959e+04   1.223009865653629e+02   3.031446802714644e+00   5.110664617228970e-01   5.290423448863516e-02
2017-01-01T00:38:20.000   7.037567666484808e+03  -4.157234311118555e+04   1.228299961122448e+02   3.031073429652456e+00   5.132772686607933e-01   5.289767215549675e-02
2017-01-01T00:38:30.000   7.067876526608239e+03  -4.156719928570092e+04   1.233589398945206e+02   3.030698444733082e+00   5.154878026146050e-01   5.289108167348725e-02
2017-01-01T00:38:40.000   7.098181629138601e+03  -4.156203335619377e+04   1.238878176367367e+02   3.030321848151667e+00   5.176980624339984e-01   5.288446304606071e-02
2017-01-01T00:38:50.000   7.128482957926739e+03  -4.155684532541626e+04   1.244166290568714e+02   3.029943640108772e+00   5.199080469411881e-01   5.287781627676603e-02
2017-01-01T00:39:00.000   7.158780496846865e+03  -4.155163519612909e+04   1.249453738733110e+02   3.029563820805570e+00   5.221177549600931e-01   5.287114136916297e-02
2017-01-01T00:39:10.000   7.189074229704383e+03  -4.154640297111646e+04   1.254740518032420e+02   3.029182390444956e+00   5.243271853096143e-01   5.286443832684132e-02
2017-01-01T00:39:20.000   7.219364140271851e+03  -4.154114865318163e+04   1.260026625632778e+02   3.028799349231210e+00   5.265363368062561e-01   5.285770715341530e-02
2017-01-01T00:39:30.000   7.249650212305716e+03  -4.153587224514265e+04   1.265312058697513e+02   3.028414697369690e+00   5.287452082653480e-01   5.285094785251786e-02
2017-01-01T00:39:40.000   7.279932429582575e+03  -4.153057374982607e+04   1.270596814393475e+02   3.028028435066378e+00   5.309537985036894e-01   5.284416042779293e-02
2017-01-01T00:39:50.000   7.310210775916362e+03  -4.152525317006534e+04   1.275880889894033e+02   3.027640562527755e+00   5.331621063408021e-01   5.283734488289303e-02
2017-01-01T00:40:00.000   7.340485235193716e+03  -4.151991050869285e+04   1.281164282385254e+02   3.027251079960225e+00   5.353701306015107e-01   5.283050122146936e-02
2017-01-01T00:40:10.000   7.370755791282158e+03  -4.151454576855689e+04   1.286446989049867e+02   3.026859987571354e+00   5.375778701092448e-01   5.282362944719345e-02
2017-01-01T00:40:20.000   7.401022428428537e+03  -4.150915895244880e+04   1.291729007136813e+02   3.026467285564556e+00   5.397853237151008e-01   5.281672956366373e-02
2017-01-01T00:40:30.000   7.431285130776124e+03  -4.150375006319070e+04   1.297010333876951e+02   3.026072974145487e+00   5.419924902626188e-01   5.280980157451808e-02
2017-01-01T00:40:40.000   7.461543882547141e+03  -4.149831910360262e+04   1.302290966514933e+02   3.025677053519654e+00   5.441993686010986e-01   5.280284548339151e-02
2017-01-01T00:40:50.000   7.491798667335320e+03  -4.149286607662927e+04   1.307570902185731e+02   3.025279523901646e+00   5.464059575340012e-01   5.279586129407879e-02
2017-01-01T00:41:00.000   7.522049468813422e+03  -4.148739098521340e+04   1.312850138038109e+02   3.024880385505919e+00   5.486122558705508e-01   5.278884901037201e-02
2017-01-01T00:41:10.000   7.552296270550577e+03  -4.148189383232827e+04   1.318128671202759e+02   3.024479638549148e+00   5.508182624124144e-01   5.278180863610237e-02
2017-01-01T00:41:20.000   7.582539056495717e+03  -4.147637462089240e+04   1.323406498876654e+02   3.024077283244019e+00   5.530239759889584e-01   5.277474017503076e-02
2017-01-01T00:41:30.000   7.612777810578589e+03  -4.147083335383947e+04   1.328683618253425e+02   3.023673319804323e+00   5.552293954281498e-01   5.276764363093758e-02
2017-01-01T00:41:40.000   7.643012516801769e+03  -4.146527003410236e+04   1.333960026539418e+02   3.023267748443792e+00   5.574345195632666e-01   5.276051900760196e-02
2017-01-01T00:41:50.000   7.673243159204775e+03  -4.145968466461797e+04   1.339235720947432e+02   3.022860569376453e+00   5.596393472302827e-01   5.275336630880826e-02
2017-01-01T00:42:00.000   7.703469721847389e+03  -4.145407724833176e+04   1.344510698693805e+02   3.022451782816956e+00   5.618438772666489e-01   5.274618553835166e-02
2017-01-01T00:42:10.000   7.733692188773498e+03  -4.144844778820424e+04   1.349784956992106e+02   3.022041388981050e+00   5.640481085086555e-01   5.273897670004662e-02
2017-01-01T00:42:20.000   7.763910543993928e+03  -4.144279628721303e+04   1.355058493050143e+02   3.021629388085727e+00   5.662520397901829e-01   5.273173979772936e-02
2017-01-01T00:42:30.000   7.794124771451182e+03  -4.143712274836092e+04   1.360331304063801e+02   3.021215780349819e+00   5.684556699401274e-01   5.272447483526829e-02
2017-01-01T00:42:40.000   7.824334855111114e+03  -4.143142717465803e+04   1.365603387233046e+02   3.020800565992692e+00   5.706589977890890e-01   5.271718181654123e-02
2017-01-01T00:42:50.000   7.854540778565285e+03  -4.142570956919909e+04   1.370874739692532e+02   3.020383745239875e+00   5.728620221403679e-01   5.270986074553414e-02
2017-01-01T00:43:00.000   7.884742525512926e+03  -4.141996993507027e+04   1.376145358595706e+02   3.019965318316283e+00   5.750647418051179e-01   5.270251162622207e-02
2017-01-01T00:43:10.000   7.914940079581691e+03  -4.141420827538360e+04   1.381415241083529e+02   3.019545285448707e+00   5.772671555892722e-01   5.269513446261304e-02
2017-01-01T00:43:20.000   7.945133425022319e+03  -4.140842459314467e+04   1.386684384405706e+02   3.019123646856182e+00   5.794692623442077e-01   5.268772925857876e-02
2017-01-01T00:43:30.000   7.975322546015705e+03  -4.140261889138436e+04   1.391952785799755e+02   3.018700402759590e+00   5.816710609162062e-01   5.268029601802324e-02
2017-01-01T00:43:40.000   8.005507426829986e+03  -4.139679117312941e+04   1.397220442518425e+02   3.018275553379507e+00   5.838725501579132e-01   5.267283474484516e-02
2017-01-01T00:43:50.000   8.035688051429044e+03  -4.139094144147487e+04   1.402487351761373e+02   3.017849098941489e+00   5.860737288997832e-01   5.266534544303052e-02
2017-01-01T00:44:00.000   8.065864403763339e+03  -4.138506969953112e+04   1.407753510725921e+02   3.017421039672213e+00   5.882745959712926e-01   5.265782811658503e-02
2017-01-01T00:44:10.000   8.096036467769713e+03  -4.137917595042279e+04   1.413018916607016e+02   3.016991375799392e+00   5.904751502009226e-01   5.265028276953240e-02
2017-01-01T00:44:20.000   8.126204227081800e+03  -4.137326019734811e+04   1.418283566546699e+02   3.016560107556108e+00   5.926753903950431e-01   5.264270940599074e-02
2017-01-01T00:44:30.000   8.156367665420328e+03  -4.136732244350007e+04   1.423547457702214e+02   3.016127235175058e+00   5.948753153663717e-01   5.263510803007115e-02
2017-01-01T00:44:40.000   8.186526766439262e+03  -4.136136269209706e+04   1.428810587219159e+02   3.015692758890790e+00   5.970749239227614e-01   5.262747864591725e-02
2017-01-01T00:44:50.000   8.216681514406477e+03  -4.135538094624850e+04   1.434072952350272e+02   3.015256678929914e+00   5.992742149168361e-01   5.261982125753315e-02
2017-01-01T00:45:00.000   8.246831893523076e+03  -4.134937720908902e+04   1.439334550336645e+02   3.014818995520874e+00   6.014731871963510e-01   5.261213586895524e-02
2017-01-01T00:45:10.000   8.276977888077394e+03  -4.134335148374861e+04   1.444595378434594e+02   3.014379708891774e+00   6.036718396154234e-01   5.260442248421374e-02
2017-01-01T00:45:20.000   8.307119482053953e+03  -4.133730377342747e+04   1.449855433847426e+02   3.013938819275839e+00   6.058701710060117e-01   5.259668110742882e-02
2017-01-01T00:45:30.000   8.337256659423971e+03  -4.133123408134130e+04   1.455114713776126e+02   3.013496326907426e+00   6.080681801991047e-01   5.258891174274038e-02
2017-01-01T00:45:40.000   8.367389404145111e+03  -4.132514241072004e+04   1.460373215419322e+02   3.013052232021926e+00   6.102658660247018e-01   5.258111439430652e-02
